#dP2019  1 18  0  0  0.00000000      96 __u+U IGS08 FIT  IAC
## 2036 432000.00000000   900.00000000 58501 0.0000000000000
+   97   C01C02C03C04C05C06C07C08C09C10C11C12C13C14C32E01E02
+        E03E04E05E07E08E09E11E12E13E14E15E18E19E21E24E25E26
+        E27E30E31E33E36G01G02G03G04G05G06G07G08G09G10G11G12
+        G13G14G15G16G17G18G19G20G21G22G23G24G25G26G27G28G29
+        G30G31G32J01J02J03R01R02R03R04R05R07R08R09R10R11R13
+        R14R15R16R17R18R19R20R21R22R23R24R26  0  0  0  0  0
++        12 12 12 13 13  8  8  8  8  9  8  7  8  8 15  5  5
++         5  5  6  6  6  5  5  5  6  6  6  6  6  6  5  6  5
++         5  6  5  6  6  6  3  3  5  3  3  3  3  3  3  3  3
++         3  3  3  3  3  3  3  3  3  3  3  3  3  3  3  3  3
++         3  3  3  8  9  0  5  5  7  5  5  5  5  5  5  5  5
++         5  5  0  5  5  5  5  5  5  5  5  8  0  0  0  0  0
%c M  cc GPS ccc cccc cccc cccc cccc ccccc ccccc ccccc ccccc
%c cc cc ccc ccc cccc cccc cccc cccc ccccc ccccc ccccc ccccc
%f  1.2500000  1.025000000  0.00000000000  0.000000000000000
%f  0.0000000  0.000000000  0.00000000000  0.000000000000000
%i    0    0    0    0      0      0      0      0         0
%i    0    0    0    0      0      0      0      0         0
/* INFORMATION & ANALYSIS CENTER (IAC)            FINAL DATA
/* S/V CLOCKS ARE ALIGNED TO GPS & GLONASS TIME RESPECTIVELY
/* USING THE BROADCAST EPHEMERIS                            
/* PCV:IGS14_2035 OL/AL:FES2004  NONE     YN ORB:CoN CLK:CoN
*  2019 01 18 12 45  0.00000000
PC01 -32293.623490  27098.525506   1054.698571    103.572473
PC02   4308.360924  41940.764716   -877.197066   -253.967599
PC03 -14831.959283  39432.989729    345.418356    -97.334974
PC04 -39642.236980  14404.477007    573.439549   -209.147451
PC05  21861.749588  36013.768678  -1179.509468    -75.039507
PC06  -6821.717506  29433.569643 -28992.767435    289.112394
PC07 -20927.934011  23352.214159  28107.844090    193.785115
PC08 -19487.321300  37548.542403   -836.338548     92.000414
PC09   4383.119732  36968.148376 -19285.085298    459.515434
PC10  -4495.660970  25903.558641  33056.428145   -418.072608
PC11 -14438.696154   7824.862734  22633.859756    -98.046585
PC12 -10984.717534 -21556.976649  13900.806405    354.790814
PC13 -10920.391358  38962.678553 -12251.658494   -491.632600
PC14 -26163.347339  -6547.032394  -7215.204001    755.957933
PC32  20619.862803  16424.724403  -9150.475036 999999.999999
PE01  21245.639455 -14592.303444 -14551.115297   -523.388338
PE02 -21222.792753  14609.922349  14584.047316     43.838991
PE03 -10347.159524  13947.182148 -23975.677444   -123.552323
PE04  -7647.350466 -24239.344186  15170.438412   -202.584375
PE05 -22408.497763  -4598.443346 -18789.111271    122.955444
PE07  21311.150873  20380.118307   2629.980470   -114.865391
PE08   7991.664794  24129.061168 -15180.296559   6421.025935
PE09 -21466.940460 -20197.482721  -2643.257412   6554.609250
PE11 -10957.429513 -15788.277915  22521.611588   5719.988951
PE12   2574.472112 -28250.892699   8491.946142   5969.738806
PE13  10873.984154  15855.283489 -22492.846210    381.881066
PE14  -4788.163085 -27936.993926  -4854.704774   6458.113774
PE15  -2212.767062  28165.332879  -8816.374447    922.622599
PE18  15490.719157  22090.780262 -10233.016264   5597.132860
PE19  11871.390628 -12217.935349  24203.905801     -9.030948
PE21  29047.448848  -3787.147918   4246.826985   -515.048448
PE24 -19965.044067  -9021.054086 -19924.765542   6279.646388
PE25 -29046.926458   3765.045701  -4279.943150   1920.179967
PE26  17830.686096  -5466.175256 -22973.276084   5005.796436
PE27  19523.626910   9185.679221  20265.658730    547.248969
PE30   -973.117308  16709.955527  24407.656124   5178.697591
PE31   1428.356619 -16740.980687 -24362.352190    929.516281
PE33  14029.964241 -24053.643922 -10029.824557    847.933551
PE36 -17649.530827   5782.417444  23060.173889    758.215958
PG01 -12966.639022  22303.042319  -5751.228448   -147.452313
PG02  19479.661013 -10477.863860 -13961.551003   -116.352552
PG03  -8324.879850  13683.669283 -21212.500491    177.972709
PG04  10753.809538  24119.610052   2843.252812     87.272386
PG05  24853.534054  -3329.862975   8935.658893      0.844276
PG06  16015.665839   2741.276079 -20975.935819    294.424064
PG07   -620.397038  20059.831488  17400.457631     49.416754
PG08  -9711.899901  13626.075023  20631.374462   -129.502105
PG09   7152.614651  25248.395342  -4121.393733    470.220954
PG10 -21215.764634 -11280.198900  11574.045193    133.463530
PG11  -9247.110977  24583.156215   4151.587978   -673.595744
PG12  11585.008940 -11732.235111 -20979.115894    275.364737
PG13  14062.853170  -5447.543914  21743.161997    -77.906850
PG14 -16234.496868 -11472.861001 -17398.049034    -92.952718
PG15   7412.902325 -16741.015250  18853.416761   -331.735350
PG16 -24909.607992    636.741248   9632.239547    -13.496092
PG17  13990.394761  19825.811642 -10507.987809     -3.018308
PG18 -17585.302434  19243.376037   4175.732091     17.005815
PG19  15896.407754  11298.181808 -18271.277712   -362.068029
PG20 -13171.885918 -14035.760473  18240.634800    521.253672
PG21  -3207.406102 -19108.017453  19014.812270   -266.873380
PG22 -16162.693590  11693.004740 -17278.893009   -625.511738
PG23   -811.051983  22759.302498 -13009.393791   -200.147400
PG24  14907.856681 -21754.039905   -876.191468    -60.956556
PG25  -1382.098363 -15312.623765 -21875.933533   -707.661085
PG26 -26428.645380  -3465.615618   -161.091001     99.789902
PG27 -14777.442430   2647.367912  21844.579598    -51.172248
PG28  18716.952021  13736.711671  13437.352199    762.286589
PG29  -2928.480234 -25322.362879  -7481.457267    290.596715
PG30   9404.645396  12773.457995  21302.044680    -37.882824
PG31 -17932.476414   -131.439665 -19722.372059     64.906891
PG32 -16271.296352 -16955.820915 -12440.061352   -269.228306
PJ01 -26582.881490  17538.517768 -22997.784525   -210.832873
PJ02 -30850.635707  28145.243430  10515.235971     -0.733204
PJ03 -23098.386240  27663.645636  26885.413070 999999.999999
PR01 -12880.842421   3801.435221 -21687.219456     38.113437
PR02   5759.930213  15506.245671 -19365.815101    349.948700
PR03  18821.515977  16456.726555  -4908.626984     -9.625962
PR04  20780.489003   7443.828366  12778.501836    291.783279
PR05  10943.822083  -5140.595046  22460.894183     20.230879
PR07 -19032.161086 -16408.801292   4524.248147    -56.093528
PR08 -20962.765858  -8037.492058 -12071.247935     19.492796
PR09   5153.920576 -13443.069519 -21060.067612     49.630021
PR10 -11027.452458  -6346.474226 -22114.718334     39.918441
PR11 -22899.206301   4876.377122 -10064.697325    -53.887132
PR13  -6225.980003  13561.863969  20669.729522    -19.122913
PR14  11264.077108   6428.324475  21977.200287     35.059479
PR15  22625.530669  -4407.393413  10934.637037     99.350947
PR16      0.000000      0.000000      0.000000 999999.999999
PR17   5512.358677  18848.098963 -16284.856267    197.177881
PR18  10384.987581   2014.353196 -23188.530718     30.247175
PR19   9949.649318 -15680.640772 -17478.216123    -61.962306
PR20   3316.276491 -25317.275164    -40.814740   -365.992378
PR21  -5706.581847 -18370.925231  16745.972781    -26.251793
PR22 -10607.328659    520.838840  23198.410681    -64.296285
PR23  -8488.339301  19647.461454  13876.461680    203.998096
PR24  -2151.304846  25367.962198  -1475.734451   -176.164167
PR26   3718.875936 -25132.397891  -2115.928021     16.482574
EOF
